ONEWEB-0098             
1 45442U 20020U   25113.02870184  .00000428  00000+0  11721-2 0  9992
2 45442  87.8795 104.8121 0001713  91.5498 268.5826 13.11418601247578
ONEWEB-0055             
1 45443U 20020V   25113.01173035 -.00000365  00000+0 -10668-2 0  9994
2 45443  87.8799 104.8174 0001887  89.9753 270.1591 13.11415674247551
ONEWEB-0093             
1 45444U 20020W   25113.06357493 -.00000084  00000+0 -27150-3 0  9995
2 45444  87.8793 104.7910 0002343  80.9259 279.2134 13.11414146247627
ONEWEB-0029             
1 45445U 20020X   25113.00579543 -.00000457  00000+0 -13262-2 0  9994
2 45445  87.8797 104.8157 0002043  83.4422 276.6938 13.11415720247591
ONEWEB-0068             
1 45446U 20020Y   25112.45295298 -.00000240  00000+0 -71235-3 0  9990
2 45446  87.8793 104.9142 0002019  83.6651 276.4707 13.11415597247451
ONEWEB-0046             
1 45447U 20020Z   25112.97870808  .00000180  00000+0  47186-3 0  9993
2 45447  87.8796 104.8201 0002326  95.1592 264.9801 13.11416937247538
ONEWEB-0063             
1 45448U 20020AA  25112.93120866 -.00000391  00000+0 -11379-2 0  9992
2 45448  87.8787 104.8283 0002178  97.6860 262.4515 13.11418673247612
ONEWEB-0019             
1 45449U 20020AB  25112.44797074  .00001428  00000+0  39905-2 0  9995
2 45449  87.8797 104.9385 0001731 105.8503 254.2816 13.11434210247391
